CCSDS_OMM_VERS = 2.0
CREATION_DATE  = 
ORIGINATOR     = 

OBJECT_NAME    = CZ-5 R/B
OBJECT_ID      = 2025-306B
CENTER_NAME    = EARTH
REF_FRAME      = TEME
TIME_SYSTEM    = UTC
MEAN_ELEMENT_THEORY = SGP/SGP4

EPOCH          = 2025-12-20T19:22:03.368352
MEAN_MOTION    = 1.92163474
ECCENTRICITY   = .75788222
INCLINATION    = 16.4229
RA_OF_ASC_NODE = 298.9498
ARG_OF_PERICENTER = 179.0262
MEAN_ANOMALY   = 184.9269

EPHEMERIS_TYPE = 0
CLASSIFICATION_TYPE = U
NORAD_CAT_ID   = 67227
ELEMENT_SET_NO = 999
REV_AT_EPOCH   = 2
BSTAR          = .48545663E-3
MEAN_MOTION_DOT = .1201E-4
MEAN_MOTION_DDOT = 0

CCSDS_OMM_VERS = 2.0
CREATION_DATE  = 
ORIGINATOR     = 

OBJECT_NAME    = QPS-SAR-15
OBJECT_ID      = 2025-307A
CENTER_NAME    = EARTH
REF_FRAME      = TEME
TIME_SYSTEM    = UTC
MEAN_ELEMENT_THEORY = SGP/SGP4

EPOCH          = 2025-12-25T15:14:02.675616
MEAN_MOTION    = 14.97088724
ECCENTRICITY   = .0010062
INCLINATION    = 42.0066
RA_OF_ASC_NODE = 99.7194
ARG_OF_PERICENTER = 294.4282
MEAN_ANOMALY   = 65.5493

EPHEMERIS_TYPE = 0
CLASSIFICATION_TYPE = U
NORAD_CAT_ID   = 67228
ELEMENT_SET_NO = 999
REV_AT_EPOCH   = 65
BSTAR          = .52701E-3
MEAN_MOTION_DOT = .6008E-4
MEAN_MOTION_DDOT = 0

CCSDS_OMM_VERS = 2.0
CREATION_DATE  = 
ORIGINATOR     = 

OBJECT_NAME    = ELECTRON KICK STAGE R/B
OBJECT_ID      = 2025-307B
CENTER_NAME    = EARTH
REF_FRAME      = TEME
TIME_SYSTEM    = UTC
MEAN_ELEMENT_THEORY = SGP/SGP4

EPOCH          = 2025-12-25T08:17:16.936224
MEAN_MOTION    = 15.56484039
ECCENTRICITY   = .0243047
INCLINATION    = 42.0009
RA_OF_ASC_NODE = 99.2510
ARG_OF_PERICENTER = 265.5143
MEAN_ANOMALY   = 91.7904

EPHEMERIS_TYPE = 0
CLASSIFICATION_TYPE = U
NORAD_CAT_ID   = 67229
ELEMENT_SET_NO = 999
REV_AT_EPOCH   = 63
BSTAR          = .14659E-2
MEAN_MOTION_DOT = .455769E-2
MEAN_MOTION_DDOT = .62045E-4

CCSDS_OMM_VERS = 2.0
CREATION_DATE  = 
ORIGINATOR     = 

OBJECT_NAME    = ELECTRON R/B
OBJECT_ID      = 2025-307C
CENTER_NAME    = EARTH
REF_FRAME      = TEME
TIME_SYSTEM    = UTC
MEAN_ELEMENT_THEORY = SGP/SGP4

EPOCH          = 2025-12-21T08:41:59.140320
MEAN_MOTION    = 15.55087105
ECCENTRICITY   = .02614087
INCLINATION    = 41.9820
RA_OF_ASC_NODE = 123.1026
ARG_OF_PERICENTER = 268.1410
MEAN_ANOMALY   = 88.9482

EPHEMERIS_TYPE = 0
CLASSIFICATION_TYPE = U
NORAD_CAT_ID   = 67230
ELEMENT_SET_NO = 999
REV_AT_EPOCH   = 1
BSTAR          = .20247584E-3
MEAN_MOTION_DOT = .71881E-3
MEAN_MOTION_DDOT = .8106877E-5

CCSDS_OMM_VERS = 2.0
CREATION_DATE  = 
ORIGINATOR     = 

OBJECT_NAME    = 2025-308A
OBJECT_ID      = 2025-308A
CENTER_NAME    = EARTH
REF_FRAME      = TEME
TIME_SYSTEM    = UTC
MEAN_ELEMENT_THEORY = SGP/SGP4

EPOCH          = 2025-12-25T14:16:01.628256
MEAN_MOTION    = 16.24595622
ECCENTRICITY   = .0022528
INCLINATION    = 69.7070
RA_OF_ASC_NODE = 56.1878
ARG_OF_PERICENTER = 149.7372
MEAN_ANOMALY   = 210.5155

EPHEMERIS_TYPE = 0
CLASSIFICATION_TYPE = U
NORAD_CAT_ID   = 67231
ELEMENT_SET_NO = 999
REV_AT_EPOCH   = 41
BSTAR          = .53553E-3
MEAN_MOTION_DOT = .1578408E-1
MEAN_MOTION_DDOT = .43819E-5

